OBJECT_NAME,OBJECT_ID,EPOCH,MEAN_MOTION,ECCENTRICITY,INCLINATION,RA_OF_ASC_NODE,ARG_OF_PERICENTER,MEAN_ANOMALY,EPHEMERIS_TYPE,CLASSIFICATION_TYPE,NORAD_CAT_ID,ELEMENT_SET_NO,REV_AT_EPOCH,BSTAR,MEAN_MOTION_DOT,MEAN_MOTION_DDOT
SPACEMOBILE-004,2024-163E,2026-07-12T00:10:13.520352,15.20795354,.00060954,52.9667,194.7854,215.6608,144.3979,0,U,61049,999,10154,.5333705E-3,.11603E-3,0
CZ-8A R/B,2025-231K,2026-07-11T12:11:40.780896,14.30161531,.01165156,50.0050,295.8455,309.6324,49.4354,0,U,66004,999,3842,.24968206E-4,-.94E-6,0
SZ-21 MODULE,2025-246C,2026-07-12T05:20:23.570592,15.78595026,.00075912,41.4697,151.1451,200.3493,159.7051,0,U,66515,999,3769,.19171135E-3,.34298E-3,0
SPACEMOBILE-006,2025-309A,2026-07-12T02:49:34.429440,15.18648870,.00103537,52.9937,217.4329,205.0874,154.9618,0,U,67232,999,3038,.29209109E-4,.291E-5,0
SPACEMOBILE-008,2026-139A,2026-07-12T01:08:45.878208,15.12799678,.00049165,52.9943,149.6970,49.0948,311.0468,0,U,69589,999,374,.15283293E-4,-.3E-6,0
SPACEMOBILE-009,2026-139B,2026-07-12T07:31:50.095200,15.12693068,.00051698,52.9935,148.5032,45.2367,314.9044,0,U,69590,999,378,.12559531E-4,-.79E-6,0
SPACEMOBILE-010,2026-139C,2026-07-12T06:00:42.242688,15.12524273,.00050891,52.9941,148.8229,36.8911,323.2429,0,U,69591,999,378,.13954727E-4,-.55E-6,0
